[{"OBJECT_NAME":"STARLINK-35009","OBJECT_ID":"2025-194R","EPOCH":"2026-03-09T13:31:58.436256","MEAN_MOTION":15.05657862,"ECCENTRICITY":0.0001481,"INCLINATION":97.6013,"RA_OF_ASC_NODE":284.3456,"ARG_OF_PERICENTER":69.5792,"MEAN_ANOMALY":290.5594,"EPHEMERIS_TYPE":0,"CLASSIFICATION_TYPE":"U","NORAD_CAT_ID":65449,"ELEMENT_SET_NO":999,"REV_AT_EPOCH":2963,"BSTAR":0.00028714,"MEAN_MOTION_DOT":4.086e-5,"MEAN_MOTION_DDOT":0},{"OBJECT_NAME":"DMSP 5D-2 F13 DEB","OBJECT_ID":"1995-015HF","EPOCH":"2026-03-08T15:33:20.356128","MEAN_MOTION":15.01113693,"ECCENTRICITY":0.00168904,"INCLINATION":98.8624,"RA_OF_ASC_NODE":112.9575,"ARG_OF_PERICENTER":188.2899,"MEAN_ANOMALY":171.8045,"EPHEMERIS_TYPE":0,"CLASSIFICATION_TYPE":"U","NORAD_CAT_ID":42289,"ELEMENT_SET_NO":999,"REV_AT_EPOCH":56056,"BSTAR":0.014483506,"MEAN_MOTION_DOT":0.00190863,"MEAN_MOTION_DDOT":0}]
